{"type": "FeatureCollection", "features": [ {"type": "Feature", "properties": {"norad_id": 31010, "name": "FENGYUN 1C DEB", "group": "fengyun-1c-debris", "lat": -62.79287311651214, "lon": 170.7395218478609, "alt_km": 744.3487858404305, "timestamp": "2025-12-22T14:45:57.682637+00:00", "meta": {"OBJECT_NAME": "FENGYUN 1C DEB", "OBJECT_ID": "1999-025BDC", "EPOCH": "2025-12-21T15:29:23.505216", "MEAN_MOTION": 14.25926133, "ECCENTRICITY": 0.0113533, "INCLINATION": 101.7249, "RA_OF_ASC_NODE": 145.6192, "ARG_OF_PERICENTER": 331.1393, "MEAN_ANOMALY": 28.3526, "EPHEMERIS_TYPE": 0, "CLASSIFICATION_TYPE": "U", "NORAD_CAT_ID": 31010, "ELEMENT_SET_NO": 999, "REV_AT_EPOCH": 95756, "BSTAR": 0.0025084, "MEAN_MOTION_DOT": 6.333e-05, "MEAN_MOTION_DDOT": 0}, "tle": {"line1": "1 31010U 99025BDC 25355.64541094  .00006333  00000+0  25084-2 0  9998", "line2": "2 31010 101.7249 145.6192 0113533 331.1393  28.3526 14.25926133957562"}}, "geometry": {"type": "Point", "coordinates": [170.7395218478609, -62.79287311651214]}}, {"type": "Feature", "properties": {"norad_id": 31012, "name": "FENGYUN 1C DEB", "group": "fengyun-1c-debris", "lat": 72.16988033244527, "lon": 104.11029729631382, "alt_km": 817.9934521681562, "timestamp": "2025-12-22T14:45:57.682647+00:00", "meta": {"OBJECT_NAME": "FENGYUN 1C DEB", "OBJECT_ID": "1999-025BDE", "EPOCH": "2025-12-22T04:53:36.703392", "MEAN_MOTION": 14.27871434, "ECCENTRICITY": 0.00814715, "INCLINATION": 98.9114, "RA_OF_ASC_NODE": 254.4943, "ARG_OF_PERICENTER": 223.6114, "MEAN_ANOMALY": 289.3931, "EPHEMERIS_TYPE": 0, "CLASSIFICATION_TYPE": "U", "NORAD_CAT_ID": 31012, "ELEMENT_SET_NO": 999, "REV_AT_EPOCH": 97882, "BSTAR": 0.00016385322, "MEAN_MOTION_DOT": 3.73e-06, "MEAN_MOTION_DDOT": 0}, "tle": {"line1": "1 31012U 99025BDE 25356.20389703  .00000373  00000+0  16385-3 0  9993", "line2": "2 31012  98.9114 254.4943 0081471 223.6114 289.3931 14.27871434978822"}}, "geometry": {"type": "Point", "coordinates": [104.11029729631382, 72.16988033244527]}}, {"type": "Feature", "properties": {"norad_id": 31014, "name": "FENGYUN 1C DEB", "group": "fengyun-1c-debris", "lat": 38.48967878246208, "lon": -35.23206038862509, "alt_km": 934.4759684599685, "timestamp": "2025-12-22T14:45:57.682657+00:00", "meta": {"OBJECT_NAME": "FENGYUN 1C DEB", "OBJECT_ID": "1999-025BDG", "EPOCH": "2025-12-21T21:32:52.748736", "MEAN_MOTION": 13.98493534, "ECCENTRICITY": 0.0088324, "INCLINATION": 98.8694, "RA_OF_ASC_NODE": 331.2063, "ARG_OF_PERICENTER": 168.2006, "MEAN_ANOMALY": 221.8264, "EPHEMERIS_TYPE": 0, "CLASSIFICATION_TYPE": "U", "NORAD_CAT_ID": 31014, "ELEMENT_SET_NO": 999, "REV_AT_EPOCH": 95964, "BSTAR": -6.4447461e-05, "MEAN_MOTION_DOT": -1.38e-06, "MEAN_MOTION_DDOT": 0}, "tle": {"line1": "1 31014U 99025BDG 25355.89783274 -.00000138  00000+0 -64447-4 0  9994", "line2": "2 31014  98.8694 331.2063 0088324 168.2006 221.8264 13.98493534959648"}}, "geometry": {"type": "Point", "coordinates": [-35.23206038862509, 38.48967878246208]}}, {"type": "Feature", "properties": {"norad_id": 31016, "name": "FENGYUN 1C DEB", "group": "fengyun-1c-debris", "lat": -28.743157161464957, "lon": -172.52132646715845, "alt_km": 730.3197424470945, "timestamp": "2025-12-22T14:45:57.682667+00:00", "meta": {"OBJECT_NAME": "FENGYUN 1C DEB", "OBJECT_ID": "1999-025BDJ", "EPOCH": "2025-12-22T07:07:44.465952", "MEAN_MOTION": 14.30509253, "ECCENTRICITY": 0.01120849, "INCLINATION": 98.4358, "RA_OF_ASC_NODE": 11.8386, "ARG_OF_PERICENTER": 245.6521, "MEAN_ANOMALY": 126.2907, "EPHEMERIS_TYPE": 0, "CLASSIFICATION_TYPE": "U", "NORAD_CAT_ID": 31016, "ELEMENT_SET_NO": 999, "REV_AT_EPOCH": 97607, "BSTAR": 0.00025324272, "MEAN_MOTION_DOT": 6.62e-06, "MEAN_MOTION_DDOT": 0}, "tle": {"line1": "1 31016U 99025BDJ 25356.29704243  .00000662  00000+0  25324-3 0  9990", "line2": "2 31016  98.4358  11.8386 0112084 245.6521 126.2907 14.30509253976076"}}, "geometry": {"type": "Point", "coordinates": [-172.52132646715845, -28.743157161464957]}}, {"type": "Feature", "properties": {"norad_id": 31017, "name": "FENGYUN 1C DEB", "group": "fengyun-1c-debris", "lat": 39.883310034476295, "lon": 169.7142803067835, "alt_km": 941.9100637376478, "timestamp": "2025-12-22T14:45:57.682678+00:00", "meta": {"OBJECT_NAME": "FENGYUN 1C DEB", "OBJECT_ID": "1999-025BDK", "EPOCH": "2025-12-17T21:54:38.423808", "MEAN_MOTION": 14.08831106, "ECCENTRICITY": 0.01129483, "INCLINATION": 98.6798, "RA_OF_ASC_NODE": 337.852, "ARG_OF_PERICENTER": 335.5494, "MEAN_ANOMALY": 87.9981, "EPHEMERIS_TYPE": 0, "CLASSIFICATION_TYPE": "U", "NORAD_CAT_ID": 31017, "ELEMENT_SET_NO": 999, "REV_AT_EPOCH": 96369, "BSTAR": 0.00040732725, "MEAN_MOTION_DOT": 7.03e-06, "MEAN_MOTION_DDOT": 0}, "tle": {"line1": "1 31017U 99025BDK 25351.91294472  .00000703  00000+0  40733-3 0  9990", "line2": "2 31017  98.6798 337.8520 0112948 335.5494  87.9981 14.08831106963694"}}, "geometry": {"type": "Point", "coordinates": [169.7142803067835, 39.883310034476295]}}, {"type": "Feature", "properties": {"norad_id": 31018, "name": "FENGYUN 1C DEB", "group": "fengyun-1c-debris", "lat": -67.56664775150465, "lon": 106.17041825917258, "alt_km": 883.9936652160286, "timestamp": "2025-12-22T14:45:57.682689+00:00", "meta": {"OBJECT_NAME": "FENGYUN 1C DEB", "OBJECT_ID": "1999-025BDL", "EPOCH": "2025-12-22T04:55:38.237088", "MEAN_MOTION": 14.16980452, "ECCENTRICITY": 0.00584762, "INCLINATION": 99.0246, "RA_OF_ASC_NODE": 83.1142, "ARG_OF_PERICENTER": 99.4929, "MEAN_ANOMALY": 261.286, "EPHEMERIS_TYPE": 0, "CLASSIFICATION_TYPE": "U", "NORAD_CAT_ID": 31018, "ELEMENT_SET_NO": 999, "REV_AT_EPOCH": 96189, "BSTAR": 0.0014589718, "MEAN_MOTION_DOT": 2.936e-05, "MEAN_MOTION_DDOT": 0}, "tle": {"line1": "1 31018U 99025BDL 25356.20530367  .00002936  00000+0  14590-2 0  9995", "line2": "2 31018  99.0246  83.1142 0058476  99.4929 261.2860 14.16980452961894"}}, "geometry": {"type": "Point", "coordinates": [106.17041825917258, -67.56664775150465]}}, {"type": "Feature", "properties": {"norad_id": 31019, "name": "FENGYUN 1C DEB", "group": "fengyun-1c-debris", "lat": -79.7913341337895, "lon": -110.54804722530129, "alt_km": 868.5327365552703, "timestamp": "2025-12-22T14:45:57.682699+00:00", "meta": {"OBJECT_NAME": "FENGYUN 1C DEB", "OBJECT_ID": "1999-025BDM", "EPOCH": "2025-12-21T19:04:30.482400", "MEAN_MOTION": 11.82992381, "ECCENTRICITY": 0.11182228, "INCLINATION": 98.7026, "RA_OF_ASC_NODE": 190.6549, "ARG_OF_PERICENTER": 266.0498, "MEAN_ANOMALY": 114.5316, "EPHEMERIS_TYPE": 0, "CLASSIFICATION_TYPE": "U", "NORAD_CAT_ID": 31019, "ELEMENT_SET_NO": 999, "REV_AT_EPOCH": 55288, "BSTAR": 0.0023777333, "MEAN_MOTION_DOT": 8.64e-06, "MEAN_MOTION_DDOT": 0}, "tle": {"line1": "1 31019U 99025BDM 25355.79479725  .00000864  00000+0  23777-2 0  9994", "line2": "2 31019  98.7026 190.6549 1118222 266.0498 114.5316 11.82992381552887"}}, "geometry": {"type": "Point", "coordinates": [-110.54804722530129, -79.7913341337895]}}, {"type": "Feature", "properties": {"norad_id": 31021, "name": "FENGYUN 1C DEB", "group": "fengyun-1c-debris", "lat": -7.556099546716779, "lon": 108.53385883403057, "alt_km": 794.2852800691853, "timestamp": "2025-12-22T14:45:57.682709+00:00", "meta": {"OBJECT_NAME": "FENGYUN 1C DEB", "OBJECT_ID": "1999-025BDP", "EPOCH": "2025-12-14T13:05:53.511072", "MEAN_MOTION": 14.75277457, "ECCENTRICITY": 0.02681864, "INCLINATION": 98.3471, "RA_OF_ASC_NODE": 99.084, "ARG_OF_PERICENTER": 236.1155, "MEAN_ANOMALY": 121.428, "EPHEMERIS_TYPE": 0, "CLASSIFICATION_TYPE": "U", "NORAD_CAT_ID": 31021, "ELEMENT_SET_NO": 999, "REV_AT_EPOCH": 73459, "BSTAR": 0.00058085842, "MEAN_MOTION_DOT": 7.026e-05, "MEAN_MOTION_DDOT": 0}, "tle": {"line1": "1 31021U 99025BDP 25348.54575823  .00007026  00000+0  58086-3 0  9997", "line2": "2 31021  98.3471  99.0840 0268186 236.1155 121.4280 14.75277457734590"}}, "geometry": {"type": "Point", "coordinates": [108.53385883403057, -7.556099546716779]}}, {"type": "Feature", "properties": {"norad_id": 31022, "name": "FENGYUN 1C DEB", "group": "fengyun-1c-debris", "lat": 68.13974612211783, "lon": 85.21957096841271, "alt_km": 842.2122598348833, "timestamp": "2025-12-22T14:45:57.682719+00:00", "meta": {"OBJECT_NAME": "FENGYUN 1C DEB", "OBJECT_ID": "1999-025BDQ", "EPOCH": "2025-12-20T22:31:38.032032", "MEAN_MOTION": 13.90456454, "ECCENTRICITY": 0.0110263, "INCLINATION": 99.5164, "RA_OF_ASC_NODE": 238.7889, "ARG_OF_PERICENTER": 99.9307, "MEAN_ANOMALY": 261.4317, "EPHEMERIS_TYPE": 0, "CLASSIFICATION_TYPE": "U", "NORAD_CAT_ID": 31022, "ELEMENT_SET_NO": 999, "REV_AT_EPOCH": 62122, "BSTAR": 0.00031869, "MEAN_MOTION_DOT": 3.7e-06, "MEAN_MOTION_DDOT": 0}, "tle": {"line1": "1 31022U 99025BDQ 25354.93863463  .00000370  00000+0  31869-3 0  9993", "line2": "2 31022  99.5164 238.7889 0110263  99.9307 261.4317 13.90456454621227"}}, "geometry": {"type": "Point", "coordinates": [85.21957096841271, 68.13974612211783]}}, {"type": "Feature", "properties": {"norad_id": 31023, "name": "FENGYUN 1C DEB", "group": "fengyun-1c-debris", "lat": 54.81547665126229, "lon": -30.89851709140007, "alt_km": 909.4379782953829, "timestamp": "2025-12-22T14:45:57.682753+00:00", "meta": {"OBJECT_NAME": "FENGYUN 1C DEB", "OBJECT_ID": "1999-025BDR", "EPOCH": "2025-12-20T19:49:13.315584", "MEAN_MOTION": 14.06693358, "ECCENTRICITY": 0.00824044, "INCLINATION": 98.8149, "RA_OF_ASC_NODE": 340.0727, "ARG_OF_PERICENTER": 198.6079, "MEAN_ANOMALY": 161.2072, "EPHEMERIS_TYPE": 0, "CLASSIFICATION_TYPE": "U", "NORAD_CAT_ID": 31023, "ELEMENT_SET_NO": 999, "REV_AT_EPOCH": 69615, "BSTAR": 0.00023624773, "MEAN_MOTION_DOT": 3.61e-06, "MEAN_MOTION_DDOT": 0}, "tle": {"line1": "1 31023U 99025BDR 25354.82584856  .00000361  00000+0  23625-3 0  9999", "line2": "2 31023  98.8149 340.0727 0082404 198.6079 161.2072 14.06693358696152"}}, "geometry": {"type": "Point", "coordinates": [-30.89851709140007, 54.81547665126229]}}]}